{"fetched_at":"2026-03-29T16:36:15Z","count":15609,"tles":[{"name":"STARLINK-11548 [DTC]","line1":"1 62829U 25019A   26087.63520531  .00216489  00000+0  16425-2 0  9991","line2":"2 62829  43.0052 191.4944 0002217 264.8699  95.1915 15.70905739 66863","category":"Starlink"}]}